[{"OBJECT_NAME":"STARLINK-32200","OBJECT_ID":"2024-131D","EPOCH":"2026-03-09T08:28:28.640064","MEAN_MOTION":15.30190327,"ECCENTRICITY":0.00014069,"INCLINATION":53.1613,"RA_OF_ASC_NODE":54.2398,"ARG_OF_PERICENTER":84.0345,"MEAN_ANOMALY":276.0816,"EPHEMERIS_TYPE":0,"CLASSIFICATION_TYPE":"U","NORAD_CAT_ID":60258,"ELEMENT_SET_NO":999,"REV_AT_EPOCH":9166,"BSTAR":-6.504171e-6,"MEAN_MOTION_DOT":-5.52e-6,"MEAN_MOTION_DDOT":0},{"OBJECT_NAME":"TOMORROW-S2","OBJECT_ID":"2024-149T","EPOCH":"2026-03-09T18:02:42.746496","MEAN_MOTION":15.30674935,"ECCENTRICITY":0.0001648,"INCLINATION":97.3857,"RA_OF_ASC_NODE":150.0385,"ARG_OF_PERICENTER":234.3331,"MEAN_ANOMALY":125.7757,"EPHEMERIS_TYPE":0,"CLASSIFICATION_TYPE":"U","NORAD_CAT_ID":60485,"ELEMENT_SET_NO":999,"REV_AT_EPOCH":8686,"BSTAR":0.00027683033,"MEAN_MOTION_DOT":8.133e-5,"MEAN_MOTION_DDOT":0}]
